{"type": "FeatureCollection", "features": [ {"type": "Feature", "properties": {"norad_id": 34014, "name": "COSMOS 2251 DEB", "group": "cosmos-2251-debris", "lat": -73.00206814021217, "lon": 155.9031817647727, "alt_km": 677.7506538936541, "timestamp": "2025-12-20T03:42:47.787661+00:00", "meta": {"OBJECT_NAME": "COSMOS 2251 DEB", "OBJECT_ID": "1993-036GZ", "EPOCH": "2025-12-19T12:38:06.639936", "MEAN_MOTION": 14.73214942, "ECCENTRICITY": 0.0037353, "INCLINATION": 74.0178, "RA_OF_ASC_NODE": 267.4842, "ARG_OF_PERICENTER": 45.2567, "MEAN_ANOMALY": 128.5581, "EPHEMERIS_TYPE": 0, "CLASSIFICATION_TYPE": "U", "NORAD_CAT_ID": 34014, "ELEMENT_SET_NO": 999, "REV_AT_EPOCH": 89403, "BSTAR": 0.0006468, "MEAN_MOTION_DOT": 4.191e-05, "MEAN_MOTION_DDOT": 0}, "tle": {"line1": "1 34014U 93036GZ  25353.52646574  .00004191  00000+0  64680-3 0  9991", "line2": "2 34014  74.0178 267.4842 0037353  45.2567 128.5581 14.73214942894035"}}, "geometry": {"type": "Point", "coordinates": [155.9031817647727, -73.00206814021217]}}, {"type": "Feature", "properties": {"norad_id": 34015, "name": "COSMOS 2251 DEB", "group": "cosmos-2251-debris", "lat": 35.45140189534392, "lon": 157.028440588642, "alt_km": 702.7850203192693, "timestamp": "2025-12-20T03:42:47.787671+00:00", "meta": {"OBJECT_NAME": "COSMOS 2251 DEB", "OBJECT_ID": "1993-036HA", "EPOCH": "2025-12-19T11:21:38.596896", "MEAN_MOTION": 14.60335777, "ECCENTRICITY": 0.0020964, "INCLINATION": 74.0232, "RA_OF_ASC_NODE": 146.5594, "ARG_OF_PERICENTER": 243.3592, "MEAN_ANOMALY": 173.1679, "EPHEMERIS_TYPE": 0, "CLASSIFICATION_TYPE": "U", "NORAD_CAT_ID": 34015, "ELEMENT_SET_NO": 999, "REV_AT_EPOCH": 88629, "BSTAR": 0.0010716, "MEAN_MOTION_DOT": 5.17e-05, "MEAN_MOTION_DDOT": 0}, "tle": {"line1": "1 34015U 93036HA  25353.47336339  .00005170  00000+0  10716-2 0  9999", "line2": "2 34015  74.0232 146.5594 0020964 243.3592 173.1679 14.60335777886296"}}, "geometry": {"type": "Point", "coordinates": [157.028440588642, 35.45140189534392]}}, {"type": "Feature", "properties": {"norad_id": 34018, "name": "COSMOS 2251 DEB", "group": "cosmos-2251-debris", "lat": -46.91556948626087, "lon": -82.45548312762959, "alt_km": 1045.1904682288468, "timestamp": "2025-12-20T03:42:47.787682+00:00", "meta": {"OBJECT_NAME": "COSMOS 2251 DEB", "OBJECT_ID": "1993-036HD", "EPOCH": "2025-12-19T09:36:21.607776", "MEAN_MOTION": 13.81079174, "ECCENTRICITY": 0.026337, "INCLINATION": 73.8781, "RA_OF_ASC_NODE": 80.809, "ARG_OF_PERICENTER": 115.4226, "MEAN_ANOMALY": 321.5194, "EPHEMERIS_TYPE": 0, "CLASSIFICATION_TYPE": "U", "NORAD_CAT_ID": 34018, "ELEMENT_SET_NO": 999, "REV_AT_EPOCH": 84749, "BSTAR": 0.00026881, "MEAN_MOTION_DOT": 3.48e-06, "MEAN_MOTION_DDOT": 0}, "tle": {"line1": "1 34018U 93036HD  25353.40025009  .00000348  00000+0  26881-3 0  9997", "line2": "2 34018  73.8781  80.8090 0263370 115.4226 321.5194 13.81079174847497"}}, "geometry": {"type": "Point", "coordinates": [-82.45548312762959, -46.91556948626087]}}, {"type": "Feature", "properties": {"norad_id": 34019, "name": "COSMOS 2251 DEB", "group": "cosmos-2251-debris", "lat": -35.73592316126475, "lon": 25.153075300457242, "alt_km": 796.0682550920565, "timestamp": "2025-12-20T03:42:47.787692+00:00", "meta": {"OBJECT_NAME": "COSMOS 2251 DEB", "OBJECT_ID": "1993-036HE", "EPOCH": "2025-12-19T13:31:25.524768", "MEAN_MOTION": 14.33966954, "ECCENTRICITY": 0.0062473, "INCLINATION": 73.9543, "RA_OF_ASC_NODE": 38.1909, "ARG_OF_PERICENTER": 218.4442, "MEAN_ANOMALY": 292.6553, "EPHEMERIS_TYPE": 0, "CLASSIFICATION_TYPE": "U", "NORAD_CAT_ID": 34019, "ELEMENT_SET_NO": 999, "REV_AT_EPOCH": 87618, "BSTAR": 0.00056161, "MEAN_MOTION_DOT": 1.575e-05, "MEAN_MOTION_DDOT": 0}, "tle": {"line1": "1 34019U 93036HE  25353.56348987  .00001575  00000+0  56161-3 0  9995", "line2": "2 34019  73.9543  38.1909 0062473 218.4442 292.6553 14.33966954876189"}}, "geometry": {"type": "Point", "coordinates": [25.153075300457242, -35.73592316126475]}}, {"type": "Feature", "properties": {"norad_id": 34021, "name": "COSMOS 2251 DEB", "group": "cosmos-2251-debris", "lat": 49.41611568891338, "lon": -83.61480317028442, "alt_km": 730.7418524268815, "timestamp": "2025-12-20T03:42:47.787702+00:00", "meta": {"OBJECT_NAME": "COSMOS 2251 DEB", "OBJECT_ID": "1993-036HG", "EPOCH": "2025-12-19T10:54:48.384288", "MEAN_MOTION": 14.49970642, "ECCENTRICITY": 0.0020974, "INCLINATION": 74.0366, "RA_OF_ASC_NODE": 117.2201, "ARG_OF_PERICENTER": 260.662, "MEAN_ANOMALY": 174.8681, "EPHEMERIS_TYPE": 0, "CLASSIFICATION_TYPE": "U", "NORAD_CAT_ID": 34021, "ELEMENT_SET_NO": 999, "REV_AT_EPOCH": 88727, "BSTAR": 0.0003271, "MEAN_MOTION_DOT": 1.242e-05, "MEAN_MOTION_DDOT": 0}, "tle": {"line1": "1 34021U 93036HG  25353.45472667  .00001242  00000+0  32710-3 0  9994", "line2": "2 34021  74.0366 117.2201 0020974 260.6620 174.8681 14.49970642887279"}}, "geometry": {"type": "Point", "coordinates": [-83.61480317028442, 49.41611568891338]}}, {"type": "Feature", "properties": {"norad_id": 34022, "name": "COSMOS 2251 DEB", "group": "cosmos-2251-debris", "lat": 10.691249924123024, "lon": -99.7728177042208, "alt_km": 752.5500343200274, "timestamp": "2025-12-20T03:42:47.787712+00:00", "meta": {"OBJECT_NAME": "COSMOS 2251 DEB", "OBJECT_ID": "1993-036HH", "EPOCH": "2025-12-19T11:48:06.957216", "MEAN_MOTION": 14.3897291, "ECCENTRICITY": 0.002294, "INCLINATION": 74.0541, "RA_OF_ASC_NODE": 258.3541, "ARG_OF_PERICENTER": 322.2188, "MEAN_ANOMALY": 215.8026, "EPHEMERIS_TYPE": 0, "CLASSIFICATION_TYPE": "U", "NORAD_CAT_ID": 34022, "ELEMENT_SET_NO": 999, "REV_AT_EPOCH": 88292, "BSTAR": 0.00016043, "MEAN_MOTION_DOT": 4.7e-06, "MEAN_MOTION_DDOT": 0}, "tle": {"line1": "1 34022U 93036HH  25353.49174719  .00000470  00000+0  16043-3 0  9999", "line2": "2 34022  74.0541 258.3541 0022940 322.2188 215.8026 14.38972910882922"}}, "geometry": {"type": "Point", "coordinates": [-99.7728177042208, 10.691249924123024]}}, {"type": "Feature", "properties": {"norad_id": 34023, "name": "COSMOS 2251 DEB", "group": "cosmos-2251-debris", "lat": -25.832184934525934, "lon": -129.95000625226467, "alt_km": 748.5337327651223, "timestamp": "2025-12-20T03:42:47.787722+00:00", "meta": {"OBJECT_NAME": "COSMOS 2251 DEB", "OBJECT_ID": "1993-036HJ", "EPOCH": "2025-12-19T03:33:52.653312", "MEAN_MOTION": 14.40574039, "ECCENTRICITY": 0.00187173, "INCLINATION": 74.0245, "RA_OF_ASC_NODE": 239.8831, "ARG_OF_PERICENTER": 334.555, "MEAN_ANOMALY": 182.5124, "EPHEMERIS_TYPE": 0, "CLASSIFICATION_TYPE": "U", "NORAD_CAT_ID": 34023, "ELEMENT_SET_NO": 999, "REV_AT_EPOCH": 88306, "BSTAR": 0.00023008021, "MEAN_MOTION_DOT": 7.08e-06, "MEAN_MOTION_DDOT": 0}, "tle": {"line1": "1 34023U 93036HJ  25353.14852608  .00000708  00000+0  23008-3 0  9995", "line2": "2 34023  74.0245 239.8831 0018717 334.5550 182.5124 14.40574039883064"}}, "geometry": {"type": "Point", "coordinates": [-129.95000625226467, -25.832184934525934]}}, {"type": "Feature", "properties": {"norad_id": 34024, "name": "COSMOS 2251 DEB", "group": "cosmos-2251-debris", "lat": -23.70458267024136, "lon": 129.61813333095287, "alt_km": 791.6257854593641, "timestamp": "2025-12-20T03:42:47.787733+00:00", "meta": {"OBJECT_NAME": "COSMOS 2251 DEB", "OBJECT_ID": "1993-036HK", "EPOCH": "2025-12-19T05:33:09.549792", "MEAN_MOTION": 14.35403048, "ECCENTRICITY": 0.0021345, "INCLINATION": 74.0468, "RA_OF_ASC_NODE": 304.0948, "ARG_OF_PERICENTER": 353.4123, "MEAN_ANOMALY": 121.8346, "EPHEMERIS_TYPE": 0, "CLASSIFICATION_TYPE": "U", "NORAD_CAT_ID": 34024, "ELEMENT_SET_NO": 999, "REV_AT_EPOCH": 88117, "BSTAR": 0.00013334, "MEAN_MOTION_DOT": 3.58e-06, "MEAN_MOTION_DDOT": 0}, "tle": {"line1": "1 34024U 93036HK  25353.23136053  .00000358  00000+0  13334-3 0  9997", "line2": "2 34024  74.0468 304.0948 0021345 353.4123 121.8346 14.35403048881170"}}, "geometry": {"type": "Point", "coordinates": [129.61813333095287, -23.70458267024136]}}, {"type": "Feature", "properties": {"norad_id": 34026, "name": "COSMOS 2251 DEB", "group": "cosmos-2251-debris", "lat": 20.779734052785077, "lon": -28.69649456583707, "alt_km": 1272.215365058304, "timestamp": "2025-12-20T03:42:47.787743+00:00", "meta": {"OBJECT_NAME": "COSMOS 2251 DEB", "OBJECT_ID": "1993-036HM", "EPOCH": "2025-12-17T16:40:17.033376", "MEAN_MOTION": 13.65315727, "ECCENTRICITY": 0.035016, "INCLINATION": 73.7668, "RA_OF_ASC_NODE": 329.0456, "ARG_OF_PERICENTER": 198.3141, "MEAN_ANOMALY": 336.8728, "EPHEMERIS_TYPE": 0, "CLASSIFICATION_TYPE": "U", "NORAD_CAT_ID": 34026, "ELEMENT_SET_NO": 999, "REV_AT_EPOCH": 83599, "BSTAR": 0.00043861076, "MEAN_MOTION_DOT": 5.19e-06, "MEAN_MOTION_DDOT": 0}, "tle": {"line1": "1 34026U 93036HM  25351.69464159  .00000519  00000+0  43861-3 0  9995", "line2": "2 34026  73.7668 329.0456 0350160 198.3141 336.8728 13.65315727835996"}}, "geometry": {"type": "Point", "coordinates": [-28.69649456583707, 20.779734052785077]}}, {"type": "Feature", "properties": {"norad_id": 34028, "name": "COSMOS 2251 DEB", "group": "cosmos-2251-debris", "lat": -66.76538784346003, "lon": -66.45017664721279, "alt_km": 1598.1457722750583, "timestamp": "2025-12-20T03:42:47.787754+00:00", "meta": {"OBJECT_NAME": "COSMOS 2251 DEB", "OBJECT_ID": "1993-036HP", "EPOCH": "2025-12-19T10:31:45.297408", "MEAN_MOTION": 13.20627983, "ECCENTRICITY": 0.0543548, "INCLINATION": 73.8835, "RA_OF_ASC_NODE": 336.9797, "ARG_OF_PERICENTER": 113.6752, "MEAN_ANOMALY": 9.857, "EPHEMERIS_TYPE": 0, "CLASSIFICATION_TYPE": "U", "NORAD_CAT_ID": 34028, "ELEMENT_SET_NO": 999, "REV_AT_EPOCH": 81096, "BSTAR": 0.00048318, "MEAN_MOTION_DOT": 4.1e-06, "MEAN_MOTION_DDOT": 0}, "tle": {"line1": "1 34028U 93036HP  25353.43871872  .00000410  00000+0  48318-3 0  9997", "line2": "2 34028  73.8835 336.9797 0543548 113.6752   9.8570 13.20627983810965"}}, "geometry": {"type": "Point", "coordinates": [-66.45017664721279, -66.76538784346003]}}]}